IRIDIUM 126             
1 42809U 17039G   24362.34965961  .00000259  00000+0  85406-4 0  9995
2 42809  86.3979 217.9460 0001865  81.0766 279.0641 14.34218187393007
IRIDIUM 124             
1 42810U 17039H   24362.77835215  .00001193  00000+0  34852-3 0  9998
2 42810  86.4517 154.6108 0002026 106.0399 254.1025 14.43281307397743
IRIDIUM 128             
1 42811U 17039J   24362.20086364  .00000457  00000+0  15616-3 0  9999
2 42811  86.3965 249.5155 0001807  89.0751 271.0651 14.34217474393017
IRIDIUM 121             
1 42812U 17039K   24362.36868810  .00000123  00000+0  36795-4 0  9993
2 42812  86.3979 217.9622 0001932  91.4150 268.7267 14.34219016392884
IRIDIUM 133             
1 42955U 17061A   24362.44188209  .00000382  00000+0  12925-3 0  9997
2 42955  86.3968 249.5192 0001982  84.1989 275.9433 14.34218698377846
IRIDIUM 100             
1 42956U 17061B   24362.71461429  .00000047  00000+0  97449-5 0  9990
2 42956  86.3966 249.3365 0001813  85.6295 274.5108 14.34217201377904
IRIDIUM 122             
1 42957U 17061C   24362.40382354  .00000645  00000+0  22326-3 0  9990
2 42957  86.3967 249.4651 0001747  79.4092 280.7300 14.34220046377844
IRIDIUM 129             
1 42958U 17061D   24362.42919689  .00000033  00000+0  48431-5 0  9998
2 42958  86.3968 249.5159 0002327  76.3613 283.7842 14.34215077377864
